{
    "links": {
        "self": "http://www.neowsapp.com/rest/v1/neo/3337293?api_key=iIulBulltgU6a56xZRHN4H3l9WmuAYTsLGpBGhQ2"
    },
    "id": "3337293",
    "neo_reference_id": "3337293",
    "name": "(2006 MY13)",
    "designation": "2006 MY13",
    "nasa_jpl_url": "http://ssd.jpl.nasa.gov/sbdb.cgi?sstr=3337293",
    "absolute_magnitude_h": 20.4,
    "estimated_diameter": {
        "kilometers": {
            "estimated_diameter_min": 0.2210828104,
            "estimated_diameter_max": 0.4943561926
        },
        "meters": {
            "estimated_diameter_min": 221.0828103591,
            "estimated_diameter_max": 494.3561926196
        },
        "miles": {
            "estimated_diameter_min": 0.137374447,
            "estimated_diameter_max": 0.3071786018
        },
        "feet": {
            "estimated_diameter_min": 725.3373275385,
            "estimated_diameter_max": 1621.9035709942
        }
    },
    "is_potentially_hazardous_asteroid": false,
    "close_approach_data": [
        {
            "close_approach_date": "2006-06-29",
            "close_approach_date_full": "2006-Jun-29 21:21",
            "epoch_date_close_approach": 1151616060000,
            "relative_velocity": {
                "kilometers_per_second": "25.0462730212",
                "kilometers_per_hour": "90166.5828761555",
                "miles_per_hour": "56026.0081210201"
            },
            "miss_distance": {
                "astronomical": "0.2284970495",
                "lunar": "88.8853522555",
                "kilometers": "34182671.906484565",
                "miles": "21240127.404894397"
            },
            "orbiting_body": "Earth"
        },
        {
            "close_approach_date": "2009-01-31",
            "close_approach_date_full": "2009-Jan-31 12:22",
            "epoch_date_close_approach": 1233404520000,
            "relative_velocity": {
                "kilometers_per_second": "38.6593213871",
                "kilometers_per_hour": "139173.5569937112",
                "miles_per_hour": "86477.0360108979"
            },
            "miss_distance": {
                "astronomical": "0.1441301619",
                "lunar": "56.0666329791",
                "kilometers": "21561565.222995153",
                "miles": "13397735.3683249914"
            },
            "orbiting_body": "Venus"
        },
        {
            "close_approach_date": "2013-07-16",
            "close_approach_date_full": "2013-Jul-16 12:32",
            "epoch_date_close_approach": 1373977920000,
            "relative_velocity": {
                "kilometers_per_second": "37.1892207689",
                "kilometers_per_hour": "133881.1947681188",
                "miles_per_hour": "83188.5679380014"
            },
            "miss_distance": {
                "astronomical": "0.4570700268",
                "lunar": "177.8002404252",
                "kilometers": "68376702.450122916",
                "miles": "42487312.7396356008"
            },
            "orbiting_body": "Earth"
        }
    ],
    "orbital_data": {
        "orbit_id": "10",
        "orbit_determination_date": "2017-04-06 09:08:25",
        "first_observation_date": "2006-06-27",
        "last_observation_date": "2006-07-21",
        "data_arc_in_days": 24,
        "observations_used": 28,
        "orbit_uncertainty": "8",
        "minimum_orbit_intersection": ".195927",
        "jupiter_tisserand_invariant": "4.671",
        "epoch_osculation": "2453919.5",
        "eccentricity": ".6090344465164642",
        "semi_major_axis": "1.263244689532489",
        "inclination": "45.08970274215596",
        "ascending_node_longitude": "288.4470336553793",
        "orbital_period": "518.5965803562641",
        "perihelion_distance": ".4938851592282069",
        "perihelion_argument": "228.6852125233965",
        "aphelion_distance": "2.032604219836771",
        "perihelion_time": "2453844.190618440457",
        "mean_anomaly": "52.27835737522715",
        "mean_motion": ".6941812068114451",
        "equinox": "J2000",
        "orbit_class": {
            "orbit_class_type": "APO",
            "orbit_class_description": "Near-Earth asteroid orbits which cross the Earth’s orbit similar to that of 1862 Apollo",
            "orbit_class_range": "a (semi-major axis) > 1.0 AU; q (perihelion) < 1.017 AU"
        }
    },
    "is_sentry_object": false
}